#dP2018 12 23  0  0  0.00000000      96 __u+U ITR00 FIT  IAC
## 2033      0.00000000   900.00000000 58475 0.0000000000000
+   90   C01C02C03C04C05C06C07C08C09C10C11C12C13C14E01E02E03
+        E04E05E07E08E09E11E12E13E14E15E18E19E21E24E25E26E27
+        E30G01G02G03G04G05G06G07G08G09G10G11G12G13G14G15G16
+        G17G18G19G20G21G22G23G24G25G26G27G28G29G30G31G32R01
+        R02R03R04R05R07R08R09R10R11R13R14R15R16R17R18R19R20
+        R21R22R23R24R26  0  0  0  0  0  0  0  0  0  0  0  0
++         0  0  0  0  0  0  0  0  0  0  0  0  0  0  0  0  0
++         0  0  0  0  0  0  0  0  0  0  0  0  0  0  0  0  0
++         0  0  0  0  0  0  0  0  0  0  0  0  0  0  0  0  0
++         0  0  0  0  0  0  0  0  0  0  0  0  0  0  0  0  0
++         0  0  0  0  0  0  0  0  0  0  0  0  0  0  0  0  0
++         0  0  0  0  0  0  0  0  0  0  0  0  0  0  0  0  0
%c M  cc GPS ccc cccc cccc cccc cccc ccccc ccccc ccccc ccccc
%c cc cc ccc ccc cccc cccc cccc cccc ccccc ccccc ccccc ccccc
%f  0.0000000  0.000000000  0.00000000000  0.000000000000000
%f  0.0000000  0.000000000  0.00000000000  0.000000000000000
%i    0    0    0    0      0      0      0      0         0
%i    0    0    0    0      0      0      0      0         0
/*                                                          
/*   RSA / INFORMATION & ANALYSIS CENTER (IAC) OF MCC       
/*   ULTRA-RAPID DETERMINATION                              
/* PCV:IGS14_2029 OL/AL:FES2004  NONE     YN ORB:CoN CLK:CoN
*  2018 12 23 19 30  0.00000000
PC01 -32280.741918  27102.970803    563.673362     -2.102813
PC02   4441.551320  41960.360753    496.108168   -192.499307
PC03 -14889.870373  39455.560141    497.620823   -151.360793
PC04 -39599.268186  14423.842489    428.255198   -243.725892
PC05      0.000000      0.000000      0.000000 999999.999999
PC06 -24445.197838  25039.883127 -23486.707149    187.446494
PC07 -15309.070870  37372.875431 -11152.806787   -198.599610
PC08  -5511.559473  23632.241416  34621.490204     70.295281
PC09  -8278.216076  25855.953964 -32151.046082    390.412022
PC10  -4112.875574  41597.132787   3674.612410   -346.458159
PC11 -13240.178853  11921.983177  21519.291775   -101.701999
PC12 -27398.863760  -5025.745561    -44.030235    295.590887
PC13   5891.747980  30663.018425  28500.712869   -444.905955
PC14 -20861.817215  17169.737066   7138.022530    535.400121
PE01   6522.166487 -27612.382400   8440.499406   -505.348513
PE02  -6488.143343  27640.832935  -8388.606919     40.345029
PE03 -14681.542045  20366.603922 -15674.333192   -114.081222
PE04  -5823.204251 -16270.251705  24028.995108   -185.102560
PE05 -26734.215100  12557.746609   1926.270867    137.482268
PE07  23099.484406   2569.910643 -18335.124760    -99.136827
PE08   5982.451106  16055.063583 -24140.274876   6437.643589
PE09 -23051.566442  -2285.841750  18418.095425   6579.742701
PE11 -26369.427003 -12703.499668   4455.269148   5717.529063
PE12 -15505.224040 -20749.967180 -14325.824209   5782.308854
PE13  26396.924132  12682.466184  -4301.388257    380.856190
PE14    506.327869 -20690.396645 -25103.867119   6470.562479
PE15  15953.123312  20595.386409  14068.501699    924.911078
PE18  -3068.639487  14847.626191  17907.536836   5660.381786
PE19  16458.643700 -20077.892987  14211.152115     -9.671071
PE21  15216.439261 -11592.421886  22590.999296   -510.835955
PE24 -14947.119987 -10517.174837 -23285.265150   6323.372075
PE25 -15219.242212  11555.515312 -22597.543120   1945.378978
PE26  21614.753497  -2500.793138 -20063.944526   5102.064079
PE27  14809.630129  11092.066065  23112.618059    564.352659
PE30   5885.511904  27037.011509  10525.742631   5246.402560
PG01 -19640.198708  -9421.985932  15237.204235   -133.568489
PG02  13915.746720  22312.900185   5029.882487    -93.742952
PG03 -16417.844623   1358.190154  20779.361184    171.953338
PG04  -6374.151472 -14262.726274 -21769.047471   -111.000627
PG05   6426.066016  18427.611213 -18044.550113      0.520022
PG06   3025.307821  21541.338735  15264.887260    310.855402
PG07 -14508.327724   5545.434374 -21346.209290     65.101850
PG08 -21617.937194  -6911.004673 -13890.797017   -126.596598
PG09 -24358.092564   8033.358801  -6966.291646    480.025798
PG10  10917.741776 -24091.322465   -573.470841    147.194394
PG11 -24320.940495  -8435.162477   5510.365446   -684.926980
PG12  14766.947914   2803.232188  21683.464001    282.163711
PG13  14791.545271  12684.562448 -18180.356017    -80.661631
PG14   1624.469160 -15377.095975  21886.962402    -94.230321
PG15  23918.244628   3974.502866 -11536.186586   -335.125189
PG16  -3947.315060 -18551.488376 -18569.787032     -8.377358
PG17 -12198.903115  13743.327698  19544.909358    -14.622642
PG18 -19386.956327 -17024.904470   6138.473514      8.528103
PG19  -2123.884859  14606.484674  21795.798511   -370.859241
PG20  14275.608847 -19739.981189 -10545.218983    520.297725
PG21  11655.584248  -9654.639157 -21026.516465   -282.106331
PG22 -14493.528550  -7073.597005  21336.141545   -605.795340
PG23 -26606.154097   1064.643875   3208.106618   -202.684879
PG24  20666.207026  12757.818654  10981.553070    -59.883739
PG25  17255.078472  -9493.393980  17511.208610   -695.506778
PG26   1959.812565 -24256.206925 -10452.823322     76.094689
PG27 -12666.919889 -12174.595197 -20088.152252    -37.005494
PG28 -13415.708358  22904.477893  -1130.743950    759.560211
PG29  25855.121331  -4172.405670  -4438.727774    309.100981
PG30  -6361.975291  16418.477357 -19819.884155    -24.408130
PG31  -4638.007236 -22534.677825  12892.870297     70.785497
PG32   9488.976410 -15109.229176  19682.416304   -306.294572
PR01 -19315.079891  16639.307886   -592.751535     36.878492
PR02  -6361.263797  16430.538739 -18438.393808    345.867252
PR03   9642.393332   6162.511920 -22761.882001    152.488001
PR04  20073.575228  -8134.885271 -13451.697679    288.552311
PR05  18691.584352 -17097.339843   2901.910334     18.347634
PR07 -10092.137416  -5776.670998  22732.739859    -54.353394
PR08 -19904.177118   7544.229652  14104.976023     19.876329
PR09  -3328.692456 -25294.583062   1257.296104     45.262001
PR10  -9495.911735 -18936.286450 -14285.173457     38.207218
PR11 -11227.567673   -750.585607 -22877.765102    -51.143837
PR13   3200.742972  25199.497492  -2339.435897    -18.219213
PR14   9784.954274  18783.914779  14223.401177     34.247302
PR15  11166.045637   1702.224327  22894.562387     98.974525
PR16   6114.330215 -16355.526319  18524.756731    109.453817
PR17  20034.161476  12513.126416   9694.190255    190.300504
PR18  23744.722730   5614.609696  -7324.521617     28.524341
PR19  14617.914901  -3979.323513 -20517.250420    -62.215515
PR20  -4546.759252 -12465.706102 -21781.838513   -363.300226
PR21 -20320.696926 -12337.725424  -9203.266516    -21.534350
PR22 -23264.193016  -4408.350116   9655.780462    -64.402945
PR23 -10316.857170   6808.251918  22310.954886    198.678332
PR24   6177.768692  12705.807689  21216.420425   -175.264232
PR26  -2734.411337 -11914.791186 -22367.036611     11.912072
EOF
